ORBCOMM-X [-]           
1 21576U 91050C   23299.19064935  .00000437  00000+0  14582-3 0  9994
2 21576  98.4216   4.8866 0003588 179.6074 180.5119 14.42225310695822
ORBCOMM FM01 [-]        
1 23545U 95017A   23298.92820315  .00005264  00000+0  75669-3 0  9997
2 23545  69.9662 114.0036 0004480 181.4326 178.6810 14.76957614523523
ORBCOMM FM02 [-]        
1 23546U 95017B   23298.90183569  .00003761  00000+0  54988-3 0  9990
2 23546  69.9684 133.1352 0005970 162.7933 197.3418 14.76484191523473
ORBCOMM FM08 [-]        
1 25112U 97084A   23298.59304074  .00001631  00000+0  54172-3 0  9997
2 25112  45.0163   0.2642 0005627 107.6983 252.4481 14.41443548354590
ORBCOMM FM10 [-]        
1 25113U 97084B   23298.86729979  .00001524  00000+0  50996-3 0  9994
2 25113  45.0177   0.6817 0002958  68.7326 291.3839 14.41386220354790
ORBCOMM FM11 [+]        
1 25114U 97084C   23298.87032088  .00001641  00000+0  54688-3 0  9996
2 25114  45.0161   0.5866 0003716  69.9154 290.2095 14.41271778354751
ORBCOMM FM12 [-]        
1 25115U 97084D   23298.89592383  .00001537  00000+0  51525-3 0  9999
2 25115  45.0168   0.1082 0002751  73.0951 287.0201 14.41259032354554
ORBCOMM FM09 [-]        
1 25116U 97084E   23298.90293777  .00001497  00000+0  50308-3 0  9990
2 25116  45.0171   0.7089 0004019  47.8350 312.2840 14.41235579354766
